CCSDS_OMM_VERS = 2.0
CREATION_DATE  = 
ORIGINATOR     = 

OBJECT_NAME    = STARLINK-36400
OBJECT_ID      = 2026-016Q
CENTER_NAME    = EARTH
REF_FRAME      = TEME
TIME_SYSTEM    = UTC
MEAN_ELEMENT_THEORY = SGP/SGP4

EPOCH          = 2026-02-12T05:29:31.849440
MEAN_MOTION    = 15.80721553
ECCENTRICITY   = .0006504
INCLINATION    = 97.2779
RA_OF_ASC_NODE = 102.4288
ARG_OF_PERICENTER = 335.1787
MEAN_ANOMALY   = 24.9167

EPHEMERIS_TYPE = 0
CLASSIFICATION_TYPE = U
NORAD_CAT_ID   = 67575
ELEMENT_SET_NO = 999
REV_AT_EPOCH   = 279
BSTAR          = .1275855E-3
MEAN_MOTION_DOT = .24292E-3
MEAN_MOTION_DDOT = 0

CCSDS_OMM_VERS = 2.0
CREATION_DATE  = 
ORIGINATOR     = 

OBJECT_NAME    = STARLINK-36591
OBJECT_ID      = 2026-016R
CENTER_NAME    = EARTH
REF_FRAME      = TEME
TIME_SYSTEM    = UTC
MEAN_ELEMENT_THEORY = SGP/SGP4

EPOCH          = 2026-02-12T05:28:00.994656
MEAN_MOTION    = 15.80902867
ECCENTRICITY   = .0001254
INCLINATION    = 97.2849
RA_OF_ASC_NODE = 102.4336
ARG_OF_PERICENTER = 79.4195
MEAN_ANOMALY   = 280.7214

EPHEMERIS_TYPE = 0
CLASSIFICATION_TYPE = U
NORAD_CAT_ID   = 67576
ELEMENT_SET_NO = 999
REV_AT_EPOCH   = 279
BSTAR          = .11054466E-2
MEAN_MOTION_DOT = .217837E-2
MEAN_MOTION_DDOT = 0

CCSDS_OMM_VERS = 2.0
CREATION_DATE  = 
ORIGINATOR     = 

OBJECT_NAME    = STARLINK-36590
OBJECT_ID      = 2026-016S
CENTER_NAME    = EARTH
REF_FRAME      = TEME
TIME_SYSTEM    = UTC
MEAN_ELEMENT_THEORY = SGP/SGP4

EPOCH          = 2026-02-12T03:55:29.694432
MEAN_MOTION    = 15.80651396
ECCENTRICITY   = .00042864
INCLINATION    = 97.2778
RA_OF_ASC_NODE = 102.3625
ARG_OF_PERICENTER = 160.0853
MEAN_ANOMALY   = 200.0584

EPHEMERIS_TYPE = 0
CLASSIFICATION_TYPE = U
NORAD_CAT_ID   = 67577
ELEMENT_SET_NO = 999
REV_AT_EPOCH   = 278
BSTAR          = -.1730258E-2
MEAN_MOTION_DOT = -.317709E-2
MEAN_MOTION_DDOT = 0

CCSDS_OMM_VERS = 2.0
CREATION_DATE  = 
ORIGINATOR     = 

OBJECT_NAME    = STARLINK-36613
OBJECT_ID      = 2026-016T
CENTER_NAME    = EARTH
REF_FRAME      = TEME
TIME_SYSTEM    = UTC
MEAN_ELEMENT_THEORY = SGP/SGP4

EPOCH          = 2026-02-12T05:24:59.414688
MEAN_MOTION    = 15.80908016
ECCENTRICITY   = .00012933
INCLINATION    = 97.2853
RA_OF_ASC_NODE = 102.4357
ARG_OF_PERICENTER = 77.2390
MEAN_ANOMALY   = 282.9023

EPHEMERIS_TYPE = 0
CLASSIFICATION_TYPE = U
NORAD_CAT_ID   = 67578
ELEMENT_SET_NO = 999
REV_AT_EPOCH   = 279
BSTAR          = .12057276E-2
MEAN_MOTION_DOT = .238228E-2
MEAN_MOTION_DDOT = 0

CCSDS_OMM_VERS = 2.0
CREATION_DATE  = 
ORIGINATOR     = 

OBJECT_NAME    = STARLINK-36571
OBJECT_ID      = 2026-016U
CENTER_NAME    = EARTH
REF_FRAME      = TEME
TIME_SYSTEM    = UTC
MEAN_ELEMENT_THEORY = SGP/SGP4

EPOCH          = 2026-02-12T06:00:02.999808
MEAN_MOTION    = 15.75225720
ECCENTRICITY   = .00015828
INCLINATION    = 97.2844
RA_OF_ASC_NODE = 102.4564
ARG_OF_PERICENTER = 76.3996
MEAN_ANOMALY   = 47.9045

EPHEMERIS_TYPE = 0
CLASSIFICATION_TYPE = U
NORAD_CAT_ID   = 67579
ELEMENT_SET_NO = 999
REV_AT_EPOCH   = 396
BSTAR          = -.62508786E-3
MEAN_MOTION_DOT = -.92509E-3
MEAN_MOTION_DDOT = 0

CCSDS_OMM_VERS = 2.0
CREATION_DATE  = 
ORIGINATOR     = 

OBJECT_NAME    = STARLINK-36612
OBJECT_ID      = 2026-016V
CENTER_NAME    = EARTH
REF_FRAME      = TEME
TIME_SYSTEM    = UTC
MEAN_ELEMENT_THEORY = SGP/SGP4

EPOCH          = 2026-02-12T05:21:15.908256
MEAN_MOTION    = 15.80921523
ECCENTRICITY   = .00012186
INCLINATION    = 97.2854
RA_OF_ASC_NODE = 102.4392
ARG_OF_PERICENTER = 64.0092
MEAN_ANOMALY   = 296.1302

EPHEMERIS_TYPE = 0
CLASSIFICATION_TYPE = U
NORAD_CAT_ID   = 67580
ELEMENT_SET_NO = 999
REV_AT_EPOCH   = 279
BSTAR          = .13816993E-2
MEAN_MOTION_DOT = .274331E-2
MEAN_MOTION_DDOT = 0

CCSDS_OMM_VERS = 2.0
CREATION_DATE  = 
ORIGINATOR     = 

OBJECT_NAME    = STARLINK-36632
OBJECT_ID      = 2026-016W
CENTER_NAME    = EARTH
REF_FRAME      = TEME
TIME_SYSTEM    = UTC
MEAN_ELEMENT_THEORY = SGP/SGP4

EPOCH          = 2026-02-12T05:16:42.424608
MEAN_MOTION    = 15.80901231
ECCENTRICITY   = .00013644
INCLINATION    = 97.2856
RA_OF_ASC_NODE = 102.4433
ARG_OF_PERICENTER = 107.1261
MEAN_ANOMALY   = 253.0157

EPHEMERIS_TYPE = 0
CLASSIFICATION_TYPE = U
NORAD_CAT_ID   = 67581
ELEMENT_SET_NO = 999
REV_AT_EPOCH   = 279
BSTAR          = .11291575E-2
MEAN_MOTION_DOT = .222619E-2
MEAN_MOTION_DDOT = 0

CCSDS_OMM_VERS = 2.0
CREATION_DATE  = 
ORIGINATOR     = 

OBJECT_NAME    = STARLINK-36609
OBJECT_ID      = 2026-016X
CENTER_NAME    = EARTH
REF_FRAME      = TEME
TIME_SYSTEM    = UTC
MEAN_ELEMENT_THEORY = SGP/SGP4

EPOCH          = 2026-02-12T06:00:02.999808
MEAN_MOTION    = 15.75074371
ECCENTRICITY   = .0001234
INCLINATION    = 97.2849
RA_OF_ASC_NODE = 102.4475
ARG_OF_PERICENTER = 77.6384
MEAN_ANOMALY   = 24.7600

EPHEMERIS_TYPE = 0
CLASSIFICATION_TYPE = U
NORAD_CAT_ID   = 67582
ELEMENT_SET_NO = 999
REV_AT_EPOCH   = 396
BSTAR          = -.33822737E-3
MEAN_MOTION_DOT = -.50033E-3
MEAN_MOTION_DDOT = 0

CCSDS_OMM_VERS = 2.0
CREATION_DATE  = 
ORIGINATOR     = 

OBJECT_NAME    = STARLINK-36577
OBJECT_ID      = 2026-016Y
CENTER_NAME    = EARTH
REF_FRAME      = TEME
TIME_SYSTEM    = UTC
MEAN_ELEMENT_THEORY = SGP/SGP4

EPOCH          = 2026-02-12T05:19:08.527008
MEAN_MOTION    = 15.80911634
ECCENTRICITY   = .00013979
INCLINATION    = 97.2857
RA_OF_ASC_NODE = 102.4406
ARG_OF_PERICENTER = 106.9562
MEAN_ANOMALY   = 253.1859

EPHEMERIS_TYPE = 0
CLASSIFICATION_TYPE = U
NORAD_CAT_ID   = 67583
ELEMENT_SET_NO = 999
REV_AT_EPOCH   = 279
BSTAR          = .12852829E-2
MEAN_MOTION_DOT = .254476E-2
MEAN_MOTION_DDOT = 0

CCSDS_OMM_VERS = 2.0
CREATION_DATE  = 
ORIGINATOR     = 

OBJECT_NAME    = STARLINK-36419
OBJECT_ID      = 2026-016Z
CENTER_NAME    = EARTH
REF_FRAME      = TEME
TIME_SYSTEM    = UTC
MEAN_ELEMENT_THEORY = SGP/SGP4

EPOCH          = 2026-02-12T05:13:23.264832
MEAN_MOTION    = 15.80902546
ECCENTRICITY   = .00012052
INCLINATION    = 97.2859
RA_OF_ASC_NODE = 102.4466
ARG_OF_PERICENTER = 92.3007
MEAN_ANOMALY   = 267.8399

EPHEMERIS_TYPE = 0
CLASSIFICATION_TYPE = U
NORAD_CAT_ID   = 67584
ELEMENT_SET_NO = 999
REV_AT_EPOCH   = 279
BSTAR          = .1168733E-2
MEAN_MOTION_DOT = .230655E-2
MEAN_MOTION_DDOT = 0

CCSDS_OMM_VERS = 2.0
CREATION_DATE  = 
ORIGINATOR     = 

OBJECT_NAME    = STARLINK-36560
OBJECT_ID      = 2026-016AA
CENTER_NAME    = EARTH
REF_FRAME      = TEME
TIME_SYSTEM    = UTC
MEAN_ELEMENT_THEORY = SGP/SGP4

EPOCH          = 2026-02-12T03:39:45.397728
MEAN_MOTION    = 15.80887211
ECCENTRICITY   = .00017561
INCLINATION    = 97.2859
RA_OF_ASC_NODE = 102.3814
ARG_OF_PERICENTER = 51.4544
MEAN_ANOMALY   = 308.6881

EPHEMERIS_TYPE = 0
CLASSIFICATION_TYPE = U
NORAD_CAT_ID   = 67585
ELEMENT_SET_NO = 999
REV_AT_EPOCH   = 278
BSTAR          = .94763359E-3
MEAN_MOTION_DOT = .185901E-2
MEAN_MOTION_DDOT = 0

CCSDS_OMM_VERS = 2.0
CREATION_DATE  = 
ORIGINATOR     = 

OBJECT_NAME    = CZ-2C DEB
OBJECT_ID      = 2026-009C
CENTER_NAME    = EARTH
REF_FRAME      = TEME
TIME_SYSTEM    = UTC
MEAN_ELEMENT_THEORY = SGP/SGP4

EPOCH          = 2026-02-12T03:57:59.516352
MEAN_MOTION    = 15.12626747
ECCENTRICITY   = .01100431
INCLINATION    = 97.2258
RA_OF_ASC_NODE = 116.4619
ARG_OF_PERICENTER = 125.4847
MEAN_ANOMALY   = 235.6713

EPHEMERIS_TYPE = 0
CLASSIFICATION_TYPE = U
NORAD_CAT_ID   = 67586
ELEMENT_SET_NO = 999
REV_AT_EPOCH   = 422
BSTAR          = .31027132E-2
MEAN_MOTION_DOT = .63262E-3
MEAN_MOTION_DDOT = 0

