STARLINK-36400          
1 67575U 26016Q   26043.22884085  .00024292  00000+0  12759-3 0  9992
2 67575  97.2779 102.4288 0006504 335.1787  24.9167 15.80721553  2791
STARLINK-36591          
1 67576U 26016R   26043.22778929  .00217837  00000+0  11054-2 0  9997
2 67576  97.2849 102.4336 0001254  79.4195 280.7214 15.80902867  2796
STARLINK-36590          
1 67577U 26016S   26043.16353813 -.00317709  00000+0 -17303-2 0  9996
2 67577  97.2778 102.3625 0004286 160.0853 200.0584 15.80651396  2786
STARLINK-36613          
1 67578U 26016T   26043.22568767  .00238228  00000+0  12057-2 0  9997
2 67578  97.2853 102.4357 0001293  77.2390 282.9023 15.80908016  2796
STARLINK-36571          
1 67579U 26016U   26043.25003472 -.00092509  00000+0 -62509-3 0  9998
2 67579  97.2844 102.4564 0001582  76.3996  47.9045 15.75225720  3961
STARLINK-36612          
1 67580U 26016V   26043.22310079  .00274331  00000+0  13817-2 0  9991
2 67580  97.2854 102.4392 0001218  64.0092 296.1302 15.80921523  2794
STARLINK-36632          
1 67581U 26016W   26043.21993547  .00222619  00000+0  11292-2 0  9995
2 67581  97.2856 102.4433 0001364 107.1261 253.0157 15.80901231  2796
STARLINK-36609          
1 67582U 26016X   26043.25003472 -.00050033  00000+0 -33823-3 0  9995
2 67582  97.2849 102.4475 0001234  77.6384  24.7600 15.75074371  3964
STARLINK-36577          
1 67583U 26016Y   26043.22162647  .00254476  00000+0  12853-2 0  9997
2 67583  97.2857 102.4406 0001397 106.9562 253.1859 15.80911634  2794
STARLINK-36419          
1 67584U 26016Z   26043.21763038  .00230655  00000+0  11687-2 0  9995
2 67584  97.2859 102.4466 0001205  92.3007 267.8399 15.80902546  2796
STARLINK-36560          
1 67585U 26016AA  26043.15260877  .00185901  00000+0  94763-3 0  9992
2 67585  97.2859 102.3814 0001756  51.4544 308.6881 15.80887211  2786
CZ-2C DEB               
1 67586U 26009C   26043.16527218  .00063262  00000+0  31027-2 0  9999
2 67586  97.2258 116.4619 0110043 125.4847 235.6713 15.12626747  4221
